[
  {
    "OBJECT_NAME": "STARLINK-4406",
    "OBJECT_ID": "22105V",
    "EPOCH": "2025-11-11T05:54:33.219648",
    "MEAN_MOTION": 15.05651115,
    "ECCENTRICITY": 0.0002214,
    "INCLINATION": 97.6009,
    "RA_OF_ASC_NODE": 194.5585,
    "ARG_OF_PERICENTER": 79.928,
    "MEAN_ANOMALY": 280.2197,
    "EPHEMERIS_TYPE": 0,
    "CLASSIFICATION_TYPE": "U",
    "NORAD_CAT_ID": 53667,
    "ELEMENT_SET_NO": 999,
    "REV_AT_EPOCH": 17548,
    "BSTAR": 2.1951000000000004e-05,
    "MEAN_MOTION_DOT": 2.56e-06,
    "MEAN_MOTION_DDOT": 0.0,
    "TLE_LINE1": "1 53667U 22105V   25315.24621782  .00000256  00000+0  21951-4 0  9999",
    "TLE_LINE2": "2 53667  97.6009 194.5585 0002214  79.9280 280.2197 15.05651115175485",
    "COMMENT": "Grouped by shell and plane from TLE"
  },
  {
    "OBJECT_NAME": "STARLINK-4458",
    "OBJECT_ID": "22105W",
    "EPOCH": "2025-11-11T05:14:39.856704",
    "MEAN_MOTION": 15.05652423,
    "ECCENTRICITY": 0.0002537,
    "INCLINATION": 97.5996,
    "RA_OF_ASC_NODE": 194.3979,
    "ARG_OF_PERICENTER": 69.8438,
    "MEAN_ANOMALY": 290.3061,
    "EPHEMERIS_TYPE": 0,
    "CLASSIFICATION_TYPE": "U",
    "NORAD_CAT_ID": 53668,
    "ELEMENT_SET_NO": 999,
    "REV_AT_EPOCH": 17547,
    "BSTAR": 4.9327000000000004e-05,
    "MEAN_MOTION_DOT": 6.51e-06,
    "MEAN_MOTION_DDOT": 0.0,
    "TLE_LINE1": "1 53668U 22105W   25315.21851686  .00000651  00000+0  49327-4 0  9991",
    "TLE_LINE2": "2 53668  97.5996 194.3979 0002537  69.8438 290.3061 15.05652423175470",
    "COMMENT": "Grouped by shell and plane from TLE"
  },
  {
    "OBJECT_NAME": "STARLINK-4464",
    "OBJECT_ID": "22105X",
    "EPOCH": "2025-11-11T05:51:59.334336",
    "MEAN_MOTION": 15.01272813,
    "ECCENTRICITY": 1.99e-05,
    "INCLINATION": 97.6014,
    "RA_OF_ASC_NODE": 194.2395,
    "ARG_OF_PERICENTER": 97.3896,
    "MEAN_ANOMALY": 262.7351,
    "EPHEMERIS_TYPE": 0,
    "CLASSIFICATION_TYPE": "U",
    "NORAD_CAT_ID": 53669,
    "ELEMENT_SET_NO": 999,
    "REV_AT_EPOCH": 17546,
    "BSTAR": 0.0,
    "MEAN_MOTION_DOT": -4.22e-06,
    "MEAN_MOTION_DDOT": 0.0,
    "TLE_LINE1": "1 53669U 22105X   25315.24443674 -.00000422  00000+0 -28302-4 0  9997",
    "TLE_LINE2": "2 53669  97.6014 194.2395 0000199  97.3896 262.7351 15.01272813175461",
    "COMMENT": "Grouped by shell and plane from TLE"
  },
  {
    "OBJECT_NAME": "STARLINK-4459",
    "OBJECT_ID": "22105Y",
    "EPOCH": "2025-11-11T06:06:30.975552",
    "MEAN_MOTION": 15.05644486,
    "ECCENTRICITY": 0.0002432,
    "INCLINATION": 97.6022,
    "RA_OF_ASC_NODE": 194.52,
    "ARG_OF_PERICENTER": 86.1339,
    "MEAN_ANOMALY": 274.0166,
    "EPHEMERIS_TYPE": 0,
    "CLASSIFICATION_TYPE": "U",
    "NORAD_CAT_ID": 53670,
    "ELEMENT_SET_NO": 999,
    "REV_AT_EPOCH": 17548,
    "BSTAR": 4.975200000000001e-05,
    "MEAN_MOTION_DOT": 6.57e-06,
    "MEAN_MOTION_DDOT": 0.0,
    "TLE_LINE1": "1 53670U 22105Y   25315.25452518  .00000657  00000+0  49752-4 0  9997",
    "TLE_LINE2": "2 53670  97.6022 194.5200 0002432  86.1339 274.0166 15.05644486175485",
    "COMMENT": "Grouped by shell and plane from TLE"
  },
  {
    "OBJECT_NAME": "STARLINK-4440",
    "OBJECT_ID": "22105Z",
    "EPOCH": "2025-11-11T05:39:03.287808",
    "MEAN_MOTION": 15.01233633,
    "ECCENTRICITY": 0.0001509,
    "INCLINATION": 97.6039,
    "RA_OF_ASC_NODE": 194.2409,
    "ARG_OF_PERICENTER": 61.6346,
    "MEAN_ANOMALY": 298.503,
    "EPHEMERIS_TYPE": 0,
    "CLASSIFICATION_TYPE": "U",
    "NORAD_CAT_ID": 53671,
    "ELEMENT_SET_NO": 999,
    "REV_AT_EPOCH": 17546,
    "BSTAR": 0.0,
    "MEAN_MOTION_DOT": -3.82e-06,
    "MEAN_MOTION_DDOT": 0.0,
    "TLE_LINE1": "1 53671U 22105Z   25315.23545472 -.00000382  00000+0 -25259-4 0  9991",
    "TLE_LINE2": "2 53671  97.6039 194.2409 0001509  61.6346 298.5030 15.01233633175465",
    "COMMENT": "Grouped by shell and plane from TLE"
  },
  {
    "OBJECT_NAME": "STARLINK-4428",
    "OBJECT_ID": "22105AA",
    "EPOCH": "2025-11-11T05:20:00.159648",
    "MEAN_MOTION": 15.0126522,
    "ECCENTRICITY": 0.0002429,
    "INCLINATION": 97.6024,
    "RA_OF_ASC_NODE": 194.2586,
    "ARG_OF_PERICENTER": 72.7725,
    "MEAN_ANOMALY": 287.3766,
    "EPHEMERIS_TYPE": 0,
    "CLASSIFICATION_TYPE": "U",
    "NORAD_CAT_ID": 53672,
    "ELEMENT_SET_NO": 999,
    "REV_AT_EPOCH": 17546,
    "BSTAR": 5.2541000000000004e-05,
    "MEAN_MOTION_DOT": 6.17e-06,
    "MEAN_MOTION_DDOT": 0.0,
    "TLE_LINE1": "1 53672U 22105AA  25315.22222407  .00000617  00000+0  52541-4 0  9994",
    "TLE_LINE2": "2 53672  97.6024 194.2586 0002429  72.7725 287.3766 15.01265220175461",
    "COMMENT": "Grouped by shell and plane from TLE"
  },
  {
    "OBJECT_NAME": "STARLINK-4456",
    "OBJECT_ID": "22105AB",
    "EPOCH": "2025-11-11T05:22:39.139968",
    "MEAN_MOTION": 15.05650235,
    "ECCENTRICITY": 0.0003243,
    "INCLINATION": 97.6003,
    "RA_OF_ASC_NODE": 194.4694,
    "ARG_OF_PERICENTER": 65.6517,
    "MEAN_ANOMALY": 294.5048,
    "EPHEMERIS_TYPE": 0,
    "CLASSIFICATION_TYPE": "U",
    "NORAD_CAT_ID": 53673,
    "ELEMENT_SET_NO": 999,
    "REV_AT_EPOCH": 17547,
    "BSTAR": 0.00010024,
    "MEAN_MOTION_DOT": 1.386e-05,
    "MEAN_MOTION_DDOT": 0.0,
    "TLE_LINE1": "1 53673U 22105AB  25315.22406412  .00001386  00000+0  10024-3 0  9998",
    "TLE_LINE2": "2 53673  97.6003 194.4694 0003243  65.6517 294.5048 15.05650235175478",
    "COMMENT": "Grouped by shell and plane from TLE"
  },
  {
    "OBJECT_NAME": "STARLINK-4620",
    "OBJECT_ID": "22105AC",
    "EPOCH": "2025-11-11T05:30:39.797856",
    "MEAN_MOTION": 15.01259688,
    "ECCENTRICITY": 0.0001814,
    "INCLINATION": 97.6027,
    "RA_OF_ASC_NODE": 194.234,
    "ARG_OF_PERICENTER": 86.0925,
    "MEAN_ANOMALY": 274.0506,
    "EPHEMERIS_TYPE": 0,
    "CLASSIFICATION_TYPE": "U",
    "NORAD_CAT_ID": 53674,
    "ELEMENT_SET_NO": 999,
    "REV_AT_EPOCH": 17546,
    "BSTAR": 0.0002481,
    "MEAN_MOTION_DOT": 3.13e-05,
    "MEAN_MOTION_DDOT": 0.0,
    "TLE_LINE1": "1 53674U 22105AC  25315.22962729  .00003130  00000+0  24810-3 0  9994",
    "TLE_LINE2": "2 53674  97.6027 194.2340 0001814  86.0925 274.0506 15.01259688175467",
    "COMMENT": "Grouped by shell and plane from TLE"
  },
  {
    "OBJECT_NAME": "STARLINK-4617",
    "OBJECT_ID": "22105AD",
    "EPOCH": "2025-11-11T05:38:36.176352",
    "MEAN_MOTION": 15.05638247,
    "ECCENTRICITY": 0.0002159,
    "INCLINATION": 97.6017,
    "RA_OF_ASC_NODE": 194.5317,
    "ARG_OF_PERICENTER": 91.8867,
    "MEAN_ANOMALY": 268.2608,
    "EPHEMERIS_TYPE": 0,
    "CLASSIFICATION_TYPE": "U",
    "NORAD_CAT_ID": 53675,
    "ELEMENT_SET_NO": 999,
    "REV_AT_EPOCH": 17548,
    "BSTAR": 0.00032305,
    "MEAN_MOTION_DOT": 4.602e-05,
    "MEAN_MOTION_DDOT": 0.0,
    "TLE_LINE1": "1 53675U 22105AD  25315.23514093  .00004602  00000+0  32305-3 0  9996",
    "TLE_LINE2": "2 53675  97.6017 194.5317 0002159  91.8867 268.2608 15.05638247175482",
    "COMMENT": "Grouped by shell and plane from TLE"
  },
  {
    "OBJECT_NAME": "STARLINK-4621",
    "OBJECT_ID": "22105AE",
    "EPOCH": "2025-11-11T05:25:20.326944",
    "MEAN_MOTION": 15.01261015,
    "ECCENTRICITY": 0.0002052,
    "INCLINATION": 97.6039,
    "RA_OF_ASC_NODE": 194.2331,
    "ARG_OF_PERICENTER": 80.1486,
    "MEAN_ANOMALY": 279.997,
    "EPHEMERIS_TYPE": 0,
    "CLASSIFICATION_TYPE": "U",
    "NORAD_CAT_ID": 53676,
    "ELEMENT_SET_NO": 999,
    "REV_AT_EPOCH": 17546,
    "BSTAR": 0.00013282,
    "MEAN_MOTION_DOT": 1.648e-05,
    "MEAN_MOTION_DDOT": 0.0,
    "TLE_LINE1": "1 53676U 22105AE  25315.22592971  .00001648  00000+0  13282-3 0  9997",
    "TLE_LINE2": "2 53676  97.6039 194.2331 0002052  80.1486 279.9970 15.01261015175460",
    "COMMENT": "Grouped by shell and plane from TLE"
  },
  {
    "OBJECT_NAME": "STARLINK-4579",
    "OBJECT_ID": "22105AF",
    "EPOCH": "2025-11-11T06:14:28.965408",
    "MEAN_MOTION": 15.05657675,
    "ECCENTRICITY": 0.00027,
    "INCLINATION": 97.601,
    "RA_OF_ASC_NODE": 194.5065,
    "ARG_OF_PERICENTER": 91.8001,
    "MEAN_ANOMALY": 268.3536,
    "EPHEMERIS_TYPE": 0,
    "CLASSIFICATION_TYPE": "U",
    "NORAD_CAT_ID": 53677,
    "ELEMENT_SET_NO": 999,
    "REV_AT_EPOCH": 17548,
    "BSTAR": 0.0,
    "MEAN_MOTION_DOT": -9.16e-06,
    "MEAN_MOTION_DDOT": 0.0,
    "TLE_LINE1": "1 53677U 22105AF  25315.26005747 -.00000916  00000+0 -59234-4 0  9999",
    "TLE_LINE2": "2 53677  97.6010 194.5065 0002700  91.8001 268.3536 15.05657675175486",
    "COMMENT": "Grouped by shell and plane from TLE"
  },
  {
    "OBJECT_NAME": "STARLINK-4632",
    "OBJECT_ID": "22105AH",
    "EPOCH": "2025-11-11T05:26:38.440320",
    "MEAN_MOTION": 15.05656774,
    "ECCENTRICITY": 0.000243,
    "INCLINATION": 97.6006,
    "RA_OF_ASC_NODE": 194.5411,
    "ARG_OF_PERICENTER": 77.6713,
    "MEAN_ANOMALY": 282.4786,
    "EPHEMERIS_TYPE": 0,
    "CLASSIFICATION_TYPE": "U",
    "NORAD_CAT_ID": 53679,
    "ELEMENT_SET_NO": 999,
    "REV_AT_EPOCH": 17548,
    "BSTAR": 4.8486e-05,
    "MEAN_MOTION_DOT": 6.39e-06,
    "MEAN_MOTION_DDOT": 0.0,
    "TLE_LINE1": "1 53679U 22105AH  25315.22683380  .00000639  00000+0  48486-4 0  9999",
    "TLE_LINE2": "2 53679  97.6006 194.5411 0002430  77.6713 282.4786 15.05656774175483",
    "COMMENT": "Grouped by shell and plane from TLE"
  },
  {
    "OBJECT_NAME": "STARLINK-4630",
    "OBJECT_ID": "22105AJ",
    "EPOCH": "2025-11-11T04:34:47.810496",
    "MEAN_MOTION": 15.0564739,
    "ECCENTRICITY": 0.0002282,
    "INCLINATION": 97.6008,
    "RA_OF_ASC_NODE": 194.4207,
    "ARG_OF_PERICENTER": 90.7304,
    "MEAN_ANOMALY": 269.4184,
    "EPHEMERIS_TYPE": 0,
    "CLASSIFICATION_TYPE": "U",
    "NORAD_CAT_ID": 53680,
    "ELEMENT_SET_NO": 999,
    "REV_AT_EPOCH": 17547,
    "BSTAR": 0.00012346000000000001,
    "MEAN_MOTION_DOT": 1.721e-05,
    "MEAN_MOTION_DDOT": 0.0,
    "TLE_LINE1": "1 53680U 22105AJ  25315.19083114  .00001721  00000+0  12346-3 0  9994",
    "TLE_LINE2": "2 53680  97.6008 194.4207 0002282  90.7304 269.4184 15.05647390175476",
    "COMMENT": "Grouped by shell and plane from TLE"
  }
]